ONEWEB-0387             
1 49313U 21090AL  26200.71584823  .00000021  00000+0  20086-4 0  9992
2 49313  87.9171 267.9683 0001895  87.8740 272.2610 13.20770363234116
ONEWEB-0388             
1 49314U 21090AM  26201.23650758 -.00000106  00000+0 -29600-3 0  9998
2 49314  87.9185 298.3888 0001873 100.3892 259.7452 13.19724887230772
ONEWEB-0389             
1 50469U 21132A   26201.15500423 -.00000074  00000+0 -22324-3 0  9992
2 50469  87.9150 359.3097 0001678  84.8750 275.2573 13.17647874222427
ONEWEB-0390             
1 50470U 21132B   26201.00481983 -.00000037  00000+0 -12730-3 0  9996
2 50470  87.9151 359.3406 0002070  89.8033 270.3336 13.17647525222404
ONEWEB-0391             
1 50471U 21132C   26200.93057005  .00000008  00000+0 -13646-4 0  9997
2 50471  87.9153 359.3652 0001846  68.1853 291.9475 13.17647226222399
ONEWEB-0392             
1 50472U 21132D   26200.96094711 -.00000163  00000+0 -45406-3 0  9997
2 50472  87.9160 359.3302 0001677  83.1498 276.9825 13.17648754222438
ONEWEB-0393             
1 50473U 21132E   26200.93649487  .00000002  00000+0 -28657-4 0  9992
2 50473  87.9151 359.3490 0001764  89.1970 270.9363 13.17647727222424
ONEWEB-0394             
1 50474U 21132F   26200.87676237 -.00000014  00000+0 -68522-4 0  9998
2 50474  87.9200 328.9431 0001758  99.8682 260.2649 13.18684851225903
ONEWEB-0395             
1 50475U 21132G   26200.97464009 -.00000541  00000+0 -15627-2 0  9993
2 50475  87.8889  14.5373 0001955  85.3543 274.7808 13.11418108220011
ONEWEB-0396             
1 50476U 21132H   26201.32527814  .00000135  00000+0  30919-3 0  9997
2 50476  87.9203 328.8671 0001714  97.3288 262.8039 13.18686682226007
ONEWEB-0397             
1 50477U 21132J   26201.11281846  .00000002  00000+0 -27421-4 0  9996
2 50477  87.9204 328.9091 0001642 101.5432 258.5885 13.18686631225953
ONEWEB-0398             
1 50478U 21132K   26201.17133906  .00000443  00000+0  12139-2 0  9992
2 50478  87.8895  14.4916 0002125  87.6580 272.4791 13.11415962219939
ONEWEB-0399             
1 50479U 21132L   26200.92888738  .00000504  00000+0  13855-2 0  9999
2 50479  87.8891  14.5511 0001437  81.4519 278.6772 13.11418065219896
ONEWEB-0400             
1 50480U 21132M   26201.31853111  .00000141  00000+0  32536-3 0  9997
2 50480  87.9201 328.8583 0002031  96.7465 263.3898 13.18685562225975
ONEWEB-0401             
1 50481U 21132N   26201.28818440 -.00000006  00000+0 -48434-4 0  9997
2 50481  87.9204 328.8614 0001785 105.7755 254.3575 13.18686561225974
ONEWEB-0402             
1 50482U 21132P   26200.87169666 -.00000095  00000+0 -27490-3 0  9997
2 50482  87.9204 328.9330 0001679 112.6675 247.4635 13.18684809225941
