{"fetched_at":"2026-07-20T18:28:52.300Z","source":"https://celestrak.org/NORAD/elements/gp.php?GROUP=oneweb&FORMAT=JSON","constellation":"oneweb","records":[{"OBJECT_NAME":"ONEWEB-0387","OBJECT_ID":"2021-090AL","EPOCH":"2026-07-19T17:10:49.287072","CLASSIFICATION_TYPE":"U","MEAN_MOTION":13.20770363,"ECCENTRICITY":0.00018955,"INCLINATION":87.9171,"RA_OF_ASC_NODE":267.9683,"ARG_OF_PERICENTER":87.874,"MEAN_ANOMALY":272.261,"EPHEMERIS_TYPE":0,"NORAD_CAT_ID":49313,"ELEMENT_SET_NO":999,"REV_AT_EPOCH":23411,"BSTAR":0.000020085898,"MEAN_MOTION_DOT":2.1e-7,"MEAN_MOTION_DDOT":0},{"OBJECT_NAME":"ONEWEB-0388","OBJECT_ID":"2021-090AM","EPOCH":"2026-07-20T05:40:34.254912","CLASSIFICATION_TYPE":"U","MEAN_MOTION":13.19724887,"ECCENTRICITY":0.00018734,"INCLINATION":87.9185,"RA_OF_ASC_NODE":298.3888,"ARG_OF_PERICENTER":100.3892,"MEAN_ANOMALY":259.7452,"EPHEMERIS_TYPE":0,"NORAD_CAT_ID":49314,"ELEMENT_SET_NO":999,"REV_AT_EPOCH":23077,"BSTAR":-0.00029599538,"MEAN_MOTION_DOT":-0.00000106,"MEAN_MOTION_DDOT":0},{"OBJECT_NAME":"ONEWEB-0389","OBJECT_ID":"2021-132A","EPOCH":"2026-07-20T03:43:12.365472","CLASSIFICATION_TYPE":"U","MEAN_MOTION":13.17647874,"ECCENTRICITY":0.00016785,"INCLINATION":87.915,"RA_OF_ASC_NODE":359.3097,"ARG_OF_PERICENTER":84.875,"MEAN_ANOMALY":275.2573,"EPHEMERIS_TYPE":0,"NORAD_CAT_ID":50469,"ELEMENT_SET_NO":999,"REV_AT_EPOCH":22242,"BSTAR":-0.00022324265,"MEAN_MOTION_DOT":-7.4e-7,"MEAN_MOTION_DDOT":0},{"OBJECT_NAME":"ONEWEB-0390","OBJECT_ID":"2021-132B","EPOCH":"2026-07-20T00:06:56.433312","CLASSIFICATION_TYPE":"U","MEAN_MOTION":13.17647525,"ECCENTRICITY":0.00020703,"INCLINATION":87.9151,"RA_OF_ASC_NODE":359.3406,"ARG_OF_PERICENTER":89.8033,"MEAN_ANOMALY":270.3336,"EPHEMERIS_TYPE":0,"NORAD_CAT_ID":50470,"ELEMENT_SET_NO":999,"REV_AT_EPOCH":22240,"BSTAR":-0.00012730126,"MEAN_MOTION_DOT":-3.7e-7,"MEAN_MOTION_DDOT":0},{"OBJECT_NAME":"ONEWEB-0391","OBJECT_ID":"2021-132C","EPOCH":"2026-07-19T22:20:01.252320","CLASSIFICATION_TYPE":"U","MEAN_MOTION":13.17647226,"ECCENTRICITY":0.0001846,"INCLINATION":87.9153,"RA_OF_ASC_NODE":359.3652,"ARG_OF_PERICENTER":68.1853,"MEAN_ANOMALY":291.9475,"EPHEMERIS_TYPE":0,"NORAD_CAT_ID":50471,"ELEMENT_SET_NO":999,"REV_AT_EPOCH":22239,"BSTAR":-0.000013646352,"MEAN_MOTION_DOT":8e-8,"MEAN_MOTION_DDOT":0},{"OBJECT_NAME":"ONEWEB-0392","OBJECT_ID":"2021-132D","EPOCH":"2026-07-19T23:03:45.830304","CLASSIFICATION_TYPE":"U","MEAN_MOTION":13.17648754,"ECCENTRICITY":0.00016772,"INCLINATION":87.916,"RA_OF_ASC_NODE":359.3302,"ARG_OF_PERICENTER":83.1498,"MEAN_ANOMALY":276.9825,"EPHEMERIS_TYPE":0,"NORAD_CAT_ID":50472,"ELEMENT_SET_NO":999,"REV_AT_EPOCH":22243,"BSTAR":-0.00045406214,"MEAN_MOTION_DOT":-0.00000163,"MEAN_MOTION_DDOT":0},{"OBJECT_NAME":"ONEWEB-0393","OBJECT_ID":"2021-132E","EPOCH":"2026-07-19T22:28:33.156768","CLASSIFICATION_TYPE":"U","MEAN_MOTION":13.17647727,"ECCENTRICITY":0.00017643,"INCLINATION":87.9151,"RA_OF_ASC_NODE":359.349,"ARG_OF_PERICENTER":89.197,"MEAN_ANOMALY":270.9363,"EPHEMERIS_TYPE":0,"NORAD_CAT_ID":50473,"ELEMENT_SET_NO":999,"REV_AT_EPOCH":22242,"BSTAR":-0.000028656935,"MEAN_MOTION_DOT":2e-8,"MEAN_MOTION_DDOT":0},{"OBJECT_NAME":"ONEWEB-0394","OBJECT_ID":"2021-132F","EPOCH":"2026-07-19T21:02:32.268768","CLASSIFICATION_TYPE":"U","MEAN_MOTION":13.18684851,"ECCENTRICITY":0.00017584,"INCLINATION":87.92,"RA_OF_ASC_NODE":328.9431,"ARG_OF_PERICENTER":99.8682,"MEAN_ANOMALY":260.2649,"EPHEMERIS_TYPE":0,"NORAD_CAT_ID":50474,"ELEMENT_SET_NO":999,"REV_AT_EPOCH":22590,"BSTAR":-0.000068522341,"MEAN_MOTION_DOT":-1.4e-7,"MEAN_MOTION_DDOT":0},{"OBJECT_NAME":"ONEWEB-0395","OBJECT_ID":"2021-132G","EPOCH":"2026-07-19T23:23:28.903776","CLASSIFICATION_TYPE":"U","MEAN_MOTION":13.11418108,"ECCENTRICITY":0.00019553,"INCLINATION":87.8889,"RA_OF_ASC_NODE":14.5373,"ARG_OF_PERICENTER":85.3543,"MEAN_ANOMALY":274.7808,"EPHEMERIS_TYPE":0,"NORAD_CAT_ID":50475,"ELEMENT_SET_NO":999,"REV_AT_EPOCH":22001,"BSTAR":-0.0015626877,"MEAN_MOTION_DOT":-0.00000541,"MEAN_MOTION_DDOT":0},{"OBJECT_NAME":"ONEWEB-0396","OBJECT_ID":"2021-132H","EPOCH":"2026-07-20T07:48:24.031296","CLASSIFICATION_TYPE":"U","MEAN_MOTION":13.18686682,"ECCENTRICITY":0.00017148,"INCLINATION":87.9203,"RA_OF_ASC_NODE":328.8671,"ARG_OF_PERICENTER":97.3288,"MEAN_ANOMALY":262.8039,"EPHEMERIS_TYPE":0,"NORAD_CAT_ID":50476,"ELEMENT_SET_NO":999,"REV_AT_EPOCH":22600,"BSTAR":0.00030918982,"MEAN_MOTION_DOT":0.00000135,"MEAN_MOTION_DDOT":0},{"OBJECT_NAME":"ONEWEB-0397","OBJECT_ID":"2021-132J","EPOCH":"2026-07-20T02:42:27.514944","CLASSIFICATION_TYPE":"U","MEAN_MOTION":13.18686631,"ECCENTRICITY":0.00016426,"INCLINATION":87.9204,"RA_OF_ASC_NODE":328.9091,"ARG_OF_PERICENTER":101.5432,"MEAN_ANOMALY":258.5885,"EPHEMERIS_TYPE":0,"NORAD_CAT_ID":50477,"ELEMENT_SET_NO":999,"REV_AT_EPOCH":22595,"BSTAR":-0.000027421262,"MEAN_MOTION_DOT":2e-8,"MEAN_MOTION_DDOT":0},{"OBJECT_NAME":"ONEWEB-0398","OBJECT_ID":"2021-132K","EPOCH":"2026-07-20T04:06:43.694784","CLASSIFICATION_TYPE":"U","MEAN_MOTION":13.11415962,"ECCENTRICITY":0.0002125,"INCLINATION":87.8895,"RA_OF_ASC_NODE":14.4916,"ARG_OF_PERICENTER":87.658,"MEAN_ANOMALY":272.4791,"EPHEMERIS_TYPE":0,"NORAD_CAT_ID":50478,"ELEMENT_SET_NO":999,"REV_AT_EPOCH":21993,"BSTAR":0.0012138934,"MEAN_MOTION_DOT":0.00000443,"MEAN_MOTION_DDOT":0},{"OBJECT_NAME":"ONEWEB-0399","OBJECT_ID":"2021-132L","EPOCH":"2026-07-19T22:17:35.869632","CLASSIFICATION_TYPE":"U","MEAN_MOTION":13.11418065,"ECCENTRICITY":0.00014373,"INCLINATION":87.8891,"RA_OF_ASC_NODE":14.5511,"ARG_OF_PERICENTER":81.4519,"MEAN_ANOMALY":278.6772,"EPHEMERIS_TYPE":0,"NORAD_CAT_ID":50479,"ELEMENT_SET_NO":999,"REV_AT_EPOCH":21989,"BSTAR":0.0013855149,"MEAN_MOTION_DOT":0.00000504,"MEAN_MOTION_DDOT":0},{"OBJECT_NAME":"ONEWEB-0400","OBJECT_ID":"2021-132M","EPOCH":"2026-07-20T07:38:41.087904","CLASSIFICATION_TYPE":"U","MEAN_MOTION":13.18685562,"ECCENTRICITY":0.00020316,"INCLINATION":87.9201,"RA_OF_ASC_NODE":328.8583,"ARG_OF_PERICENTER":96.7465,"MEAN_ANOMALY":263.3898,"EPHEMERIS_TYPE":0,"NORAD_CAT_ID":50480,"ELEMENT_SET_NO":999,"REV_AT_EPOCH":22597,"BSTAR":0.00032535682,"MEAN_MOTION_DOT":0.00000141,"MEAN_MOTION_DDOT":0},{"OBJECT_NAME":"ONEWEB-0401","OBJECT_ID":"2021-132N","EPOCH":"2026-07-20T06:54:59.132160","CLASSIFICATION_TYPE":"U","MEAN_MOTION":13.18686561,"ECCENTRICITY":0.0001785,"INCLINATION":87.9204,"RA_OF_ASC_NODE":328.8614,"ARG_OF_PERICENTER":105.7755,"MEAN_ANOMALY":254.3575,"EPHEMERIS_TYPE":0,"NORAD_CAT_ID":50481,"ELEMENT_SET_NO":999,"REV_AT_EPOCH":22597,"BSTAR":-0.000048434232,"MEAN_MOTION_DOT":-6e-8,"MEAN_MOTION_DDOT":0},{"OBJECT_NAME":"ONEWEB-0402","OBJECT_ID":"2021-132P","EPOCH":"2026-07-19T20:55:14.591424","CLASSIFICATION_TYPE":"U","MEAN_MOTION":13.18684809,"ECCENTRICITY":0.00016794,"INCLINATION":87.9204,"RA_OF_ASC_NODE":328.933,"ARG_OF_PERICENTER":112.6675,"MEAN_ANOMALY":247.4635,"EPHEMERIS_TYPE":0,"NORAD_CAT_ID":50482,"ELEMENT_SET_NO":999,"REV_AT_EPOCH":22594,"BSTAR":-0.00027490261,"MEAN_MOTION_DOT":-9.5e-7,"MEAN_MOTION_DDOT":0}]}
